{
    "links": {
        "self": "http://www.neowsapp.com/rest/v1/neo/3478252?api_key=iIulBulltgU6a56xZRHN4H3l9WmuAYTsLGpBGhQ2"
    },
    "id": "3478252",
    "neo_reference_id": "3478252",
    "name": "(2009 WT25)",
    "designation": "2009 WT25",
    "nasa_jpl_url": "http://ssd.jpl.nasa.gov/sbdb.cgi?sstr=3478252",
    "absolute_magnitude_h": 23.1,
    "estimated_diameter": {
        "kilometers": {
            "estimated_diameter_min": 0.063760979,
            "estimated_diameter_max": 0.1425738833
        },
        "meters": {
            "estimated_diameter_min": 63.7609789875,
            "estimated_diameter_max": 142.5738833281
        },
        "miles": {
            "estimated_diameter_min": 0.0396192233,
            "estimated_diameter_max": 0.0885912765
        },
        "feet": {
            "estimated_diameter_min": 209.1895703015,
            "estimated_diameter_max": 467.7620993781
        }
    },
    "is_potentially_hazardous_asteroid": false,
    "close_approach_data": [
        {
            "close_approach_date": "2009-11-24",
            "close_approach_date_full": "2009-Nov-24 10:19",
            "epoch_date_close_approach": 1259057940000,
            "relative_velocity": {
                "kilometers_per_second": "3.7824294762",
                "kilometers_per_hour": "13616.7461143612",
                "miles_per_hour": "8460.9164953374"
            },
            "miss_distance": {
                "astronomical": "0.2424540731",
                "lunar": "94.3146344359",
                "kilometers": "36270612.908584297",
                "miles": "22537513.7829934186"
            },
            "orbiting_body": "Earth"
        }
    ],
    "orbital_data": {
        "orbit_id": "10",
        "orbit_determination_date": "2017-04-06 08:59:01",
        "first_observation_date": "2009-11-21",
        "last_observation_date": "2010-01-04",
        "data_arc_in_days": 44,
        "observations_used": 32,
        "orbit_uncertainty": "7",
        "minimum_orbit_intersection": ".232388",
        "jupiter_tisserand_invariant": "3.465",
        "epoch_osculation": "2459000.5",
        "eccentricity": ".4611750614923711",
        "semi_major_axis": "2.262379355632298",
        "inclination": "5.43251984529304",
        "ascending_node_longitude": "248.1242094712602",
        "orbital_period": "1242.929714152079",
        "perihelion_distance": "1.219026417179502",
        "perihelion_argument": "173.1026317475202",
        "aphelion_distance": "3.305732294085094",
        "perihelion_time": "2458890.208536725336",
        "mean_anomaly": "31.94462754152228",
        "mean_motion": ".2896382602338785",
        "equinox": "J2000",
        "orbit_class": {
            "orbit_class_type": "AMO",
            "orbit_class_description": "Near-Earth asteroid orbits similar to that of 1221 Amor",
            "orbit_class_range": "1.017 AU < q (perihelion) < 1.3 AU"
        }
    },
    "is_sentry_object": false
}